<?xml version="1.0" encoding="utf-8" ?><kml xmlns="http://www.opengis.net/kml/2.2" xmlns:xsi="http://www.w3.org/2001/XMLSchema-instance" xsi:schemaLocation="http://www.opengis.net/kml/2.2 http://schemas.opengis.net/kml/2.2.0/ogckml22.xsd"><Document><name>NZ Lagoon Polygons (Topo, 1:50k)</name>
<description><![CDATA[
<style>
	.heading {
		font-size: 12px;
		font-weight: bold;
	}
</style>
<base href="https://data.linz.govt.nz/" />


    <div class="heading">Description</div>
    <hr>
<p>A sheet of salt water separated from the open sea by sand, shingle banks or a road embankment. The sheet of water between an offshore reef, esp. of coral, and mainland. The sheet of water within a ring or horseshoe shaped atoll.</p>
<p>Data Dictionary for lagoon_poly: <a href="https://docs.topo.linz.govt.nz/data-dictionary/tdd-class-lagoon_poly.html">docs.topo.linz.govt.nz/data-dictionary/tdd-class-l...</a></p>
<p>This layer is a component of the Topo50 map series. The Topo50 map series provides topographic mapping for the New Zealand mainland, Chatham and New Zealand's offshore islands, at 1:50,000 scale.</p>
<p>Further information on Topo50:<br>
<a href="http://www.linz.govt.nz/topography/topo-maps/topo50">www.linz.govt.nz/topography/topo-maps/topo50</a></p>



	<div class="heading">License</div>
	<hr>
	License: <a href="https://data.linz.govt.nz/license/attribution-4-0-international/" onclick="window.open('about:blank'); window.open(this.href); return false;">Creative Commons Attribution 4.0 International</a>


<hr>



<div class="footer">Source: <a href="https://data.linz.govt.nz/layer/50292-nz-lagoon-polygons-topo-150k/" onclick="window.open('about:blank'); window.open(this.href); return false;">NZ Lagoon Polygons (Topo, 1:50k)</a></div>
<div class="footer">Data last updated: 23 Apr 2026</div>
<div class="footer">Downloaded from <a href="https://data.linz.govt.nz/" onclick="window.open('about:blank'); window.open(this.href); return false;">LINZ Data Service</a> on 21 Jul 2026</div>
]]></description>
<Placemark><name>Coopers Lagoon/Muriwai</name>
<styleUrl>#nz-lagoon-polygons-topo-150kId</styleUrl>
<ExtendedData><SchemaData schemaUrl="#nz-lagoon-polygons-topo-150kId"><SimpleData name="t50_fid">5002784</SimpleData>
<SimpleData name="elevation">0</SimpleData>
<SimpleData name="name_ascii">Coopers Lagoon/Muriwai</SimpleData>
<SimpleData name="macronated">N</SimpleData>
<SimpleData name="name">Coopers Lagoon/Muriwai</SimpleData>
</SchemaData>
</ExtendedData>
<Polygon><outerBoundaryIs><LinearRing><tessellate>1</tessellate>
<coordinates> 172.308506,-43.866604 172.308278,-43.866518 172.308324,-43.866467 172.308325,-43.866407 172.308259,-43.866378 172.308136,-43.866440 172.308028,-43.866476 172.307906,-43.866442 172.307678,-43.866330 172.307325,-43.866350 172.307097,-43.866260 172.306857,-43.866255 172.306683,-43.866327 172.306534,-43.866397 172.306341,-43.866325 172.306188,-43.866324 172.305978,-43.866345 172.305718,-43.866340 172.305518,-43.866424 172.305374,-43.866537 172.305134,-43.866562 172.304939,-43.866638 172.304805,-43.866759 172.304707,-43.866806 172.304626,-43.866784 172.304540,-43.866691 172.304413,-43.866675 172.304173,-43.866711 172.303926,-43.866824 172.303777,-43.866967 172.303775,-43.867144 172.303885,-43.867307 172.304210,-43.867464 172.304342,-43.867513 172.304561,-43.867518 172.304838,-43.867420 172.305123,-43.867503 172.305296,-43.867523 172.305433,-43.867564 172.305786,-43.867548 172.305820,-43.867629 172.305891,-43.867776 172.305822,-43.867910 172.305859,-43.867987 172.305888,-43.868048 172.305656,-43.868015 172.305447,-43.868083 172.305360,-43.868198 172.305117,-43.868301 172.304751,-43.868543 172.304316,-43.868610 172.304001,-43.868747 172.303713,-43.868827 172.303634,-43.868798 172.303714,-43.868730 172.303697,-43.868650 172.303594,-43.868572 172.303478,-43.868578 172.303350,-43.868544 172.303275,-43.868460 172.303261,-43.868339 172.303140,-43.868280 172.302988,-43.868273 172.302853,-43.868336 172.302783,-43.868543 172.302664,-43.868862 172.302598,-43.869034 172.302438,-43.869148 172.302359,-43.869216 172.302167,-43.869194 172.302018,-43.869229 172.301764,-43.869260 172.301338,-43.869323 172.301000,-43.869321 172.300565,-43.869353 172.300010,-43.869280 172.299914,-43.869192 172.299915,-43.869088 172.299919,-43.868723 172.299924,-43.868340 172.300075,-43.867853 172.300099,-43.867471 172.300104,-43.867401 172.300182,-43.867001 172.300258,-43.866619 172.300482,-43.866098 172.300658,-43.865419 172.301002,-43.864952 172.301195,-43.864884 172.301610,-43.864362 172.301734,-43.864207 172.301954,-43.864035 172.302318,-43.863793 172.302586,-43.863707 172.302657,-43.863812 172.302631,-43.864039 172.302531,-43.864230 172.302602,-43.864387 172.302699,-43.864388 172.302978,-43.864206 172.303032,-43.864030 172.303381,-43.863851 172.303431,-43.863717 172.303631,-43.863639 172.303653,-43.863465 172.303805,-43.863391 172.303979,-43.863199 172.303968,-43.863010 172.304135,-43.862747 172.304320,-43.862808 172.304347,-43.862690 172.304423,-43.862649 172.304454,-43.862571 172.304641,-43.862482 172.304630,-43.862574 172.304579,-43.862727 172.304300,-43.863558 172.304124,-43.864277 172.303897,-43.864923 172.303724,-43.865324 172.303637,-43.865556 172.303514,-43.865946 172.303293,-43.866115 172.303138,-43.866157 172.302974,-43.866119 172.302880,-43.866167 172.302921,-43.866231 172.303024,-43.866255 172.303113,-43.866339 172.303268,-43.866399 172.303432,-43.866354 172.303519,-43.866414 172.303620,-43.866403 172.303741,-43.866318 172.303819,-43.866297 172.303921,-43.866328 172.304083,-43.866266 172.304272,-43.866148 172.304364,-43.866048 172.304328,-43.865821 172.304191,-43.865758 172.304194,-43.865522 172.304231,-43.865169 172.304555,-43.864926 172.304810,-43.864708 172.304983,-43.864343 172.305239,-43.864113 172.305359,-43.863894 172.305447,-43.863577 172.305467,-43.863333 172.305555,-43.862991 172.305774,-43.863029 172.306059,-43.863141 172.306382,-43.862923 172.306486,-43.862728 172.306252,-43.862507 172.306153,-43.862397 172.306157,-43.862124 172.306232,-43.861863 172.306363,-43.861431 172.306596,-43.861366 172.306640,-43.861147 172.306781,-43.861151 172.306953,-43.860872 172.307063,-43.860893 172.307067,-43.860829 172.307206,-43.860692 172.307262,-43.860753 172.307182,-43.860919 172.307252,-43.860945 172.307322,-43.861042 172.307431,-43.861063 172.307458,-43.861194 172.307423,-43.861343 172.307603,-43.861414 172.307727,-43.861381 172.308115,-43.861409 172.308145,-43.861522 172.307975,-43.861567 172.307834,-43.861566 172.307775,-43.861590 172.307682,-43.861629 172.307511,-43.861730 172.307382,-43.861910 172.307409,-43.862035 172.307627,-43.862060 172.307902,-43.862014 172.308317,-43.862101 172.308507,-43.862226 172.308752,-43.862260 172.308859,-43.862375 172.308579,-43.862464 172.308338,-43.862471 172.308129,-43.862522 172.307934,-43.862591 172.307739,-43.862799 172.307858,-43.862904 172.307879,-43.863252 172.307851,-43.863496 172.307825,-43.863757 172.308018,-43.863775 172.308478,-43.863621 172.308841,-43.863536 172.308937,-43.863519 172.309060,-43.863485 172.309227,-43.863486 172.309301,-43.863505 172.309106,-43.863573 172.308961,-43.863589 172.308694,-43.863710 172.308523,-43.863830 172.308402,-43.863952 172.308303,-43.864142 172.308591,-43.864283 172.308761,-43.864284 172.308784,-43.864284 172.308906,-43.864233 172.309246,-43.864043 172.309342,-43.864044 172.309539,-43.864032 172.309850,-43.864013 172.310187,-43.864153 172.310186,-43.864223 172.310137,-43.864275 172.309991,-43.864292 172.309894,-43.864343 172.309916,-43.864500 172.310084,-43.864641 172.310252,-43.864711 172.310517,-43.864783 172.310590,-43.864783 172.310661,-43.864853 172.310683,-43.864992 172.310635,-43.865096 172.310537,-43.865165 172.310608,-43.865270 172.310728,-43.865341 172.310678,-43.865462 172.310508,-43.865496 172.310507,-43.865601 172.310603,-43.865688 172.310602,-43.865810 172.310458,-43.865881 172.310359,-43.865930 172.310094,-43.865929 172.309925,-43.865928 172.309731,-43.865926 172.309369,-43.865889 172.308910,-43.865886 172.308815,-43.865852 172.308622,-43.865832 172.308476,-43.865884 172.308425,-43.866075 172.308424,-43.866159 172.308424,-43.866232 172.308616,-43.866410 172.308821,-43.866600 172.308725,-43.866654 172.308506,-43.866604</coordinates>
</LinearRing>
</outerBoundaryIs>
</Polygon>
</Placemark>
<Placemark><name />
<styleUrl>#nz-lagoon-polygons-topo-150kId</styleUrl>
<ExtendedData><SchemaData schemaUrl="#nz-lagoon-polygons-topo-150kId"><SimpleData name="t50_fid">5002825</SimpleData>
<SimpleData name="elevation">0</SimpleData>
<SimpleData name="name_ascii" />
<SimpleData name="macronated">N</SimpleData>
<SimpleData name="name" />
</SchemaData>
</ExtendedData>
<Polygon><outerBoundaryIs><LinearRing><tessellate>1</tessellate>
<coordinates> 172.308933,-43.866758 172.309014,-43.866818 172.308988,-43.866877 172.308981,-43.866998 172.309072,-43.867099 172.309035,-43.867209 172.308907,-43.867264 172.308723,-43.867292 172.308559,-43.867332 172.308323,-43.867438 172.308149,-43.867492 172.307894,-43.867498 172.307658,-43.867563 172.307516,-43.867554 172.307316,-43.867605 172.307219,-43.867643 172.307055,-43.867707 172.306921,-43.867813 172.306797,-43.867890 172.306593,-43.867900 172.306635,-43.867833 172.306757,-43.867801 172.306810,-43.867698 172.306902,-43.867628 172.307127,-43.867604 172.307240,-43.867527 172.307296,-43.867512 172.307379,-43.867491 172.307430,-43.867414 172.307447,-43.867285 172.307509,-43.867154 172.307520,-43.867130 172.307590,-43.867110 172.307695,-43.867079 172.307758,-43.867017 172.307762,-43.867013 172.307804,-43.866903 172.307881,-43.866874 172.307970,-43.866900 172.308008,-43.866911 172.308131,-43.866886 172.308304,-43.866850 172.308426,-43.866925 172.308544,-43.866915 172.308682,-43.866867 172.308729,-43.866783 172.308781,-43.866757 172.308811,-43.866743 172.308933,-43.866758</coordinates>
</LinearRing>
</outerBoundaryIs>
</Polygon>
</Placemark>
<Placemark><name />
<styleUrl>#nz-lagoon-polygons-topo-150kId</styleUrl>
<ExtendedData><SchemaData schemaUrl="#nz-lagoon-polygons-topo-150kId"><SimpleData name="t50_fid">5002805</SimpleData>
<SimpleData name="elevation">0</SimpleData>
<SimpleData name="name_ascii" />
<SimpleData name="macronated">N</SimpleData>
<SimpleData name="name" />
</SchemaData>
</ExtendedData>
<Polygon><outerBoundaryIs><LinearRing><tessellate>1</tessellate>
<coordinates> 172.308675,-43.859291 172.308785,-43.859289 172.308914,-43.859331 172.309052,-43.859379 172.309055,-43.859487 172.309129,-43.859537 172.309232,-43.859646 172.309384,-43.859743 172.309470,-43.859756 172.309638,-43.859747 172.309667,-43.859706 172.309657,-43.859651 172.309693,-43.859626 172.309839,-43.859642 172.309904,-43.859609 172.310032,-43.859620 172.310108,-43.859592 172.310276,-43.859609 172.310401,-43.859578 172.310479,-43.859605 172.310611,-43.859667 172.310690,-43.859632 172.310725,-43.859660 172.310695,-43.859769 172.310784,-43.859831 172.310895,-43.859845 172.310936,-43.859954 172.311029,-43.859980 172.311049,-43.860079 172.311138,-43.860128 172.311148,-43.860167 172.311262,-43.860204 172.311262,-43.860248 172.311176,-43.860273 172.311150,-43.860343 172.311096,-43.860353 172.310954,-43.860316 172.310882,-43.860367 172.310795,-43.860419 172.310623,-43.860449 172.310594,-43.860513 172.310650,-43.860578 172.310661,-43.860625 172.310538,-43.860751 172.310448,-43.860768 172.310413,-43.860721 172.310389,-43.860659 172.310300,-43.860604 172.310172,-43.860516 172.310012,-43.860473 172.309880,-43.860465 172.309643,-43.860543 172.309536,-43.860512 172.309540,-43.860455 172.309487,-43.860431 172.309344,-43.860436 172.309184,-43.860406 172.309098,-43.860344 172.309120,-43.860302 172.309249,-43.860293 172.309303,-43.860247 172.309308,-43.860154 172.309298,-43.860066 172.309217,-43.860003 172.309092,-43.860007 172.308905,-43.860055 172.308702,-43.860036 172.308613,-43.859979 172.308585,-43.859898 172.308636,-43.859816 172.308730,-43.859772 172.308898,-43.859755 172.308902,-43.859686 172.308857,-43.859628 172.308753,-43.859594 172.308600,-43.859565 172.308555,-43.859447 172.308562,-43.859361 172.308563,-43.859337 172.308675,-43.859291</coordinates>
</LinearRing>
</outerBoundaryIs>
</Polygon>
</Placemark>
<Placemark><name />
<styleUrl>#nz-lagoon-polygons-topo-150kId</styleUrl>
<ExtendedData><SchemaData schemaUrl="#nz-lagoon-polygons-topo-150kId"><SimpleData name="t50_fid">5002852</SimpleData>
<SimpleData name="elevation">0</SimpleData>
<SimpleData name="name_ascii" />
<SimpleData name="macronated">N</SimpleData>
<SimpleData name="name" />
</SchemaData>
</ExtendedData>
<Polygon><outerBoundaryIs><LinearRing><tessellate>1</tessellate>
<coordinates> 172.360246,-43.840191 172.360377,-43.840196 172.360439,-43.840233 172.360433,-43.840288 172.360572,-43.840324 172.360523,-43.840367 172.360378,-43.840351 172.360215,-43.840387 172.360149,-43.840292 172.360129,-43.840222 172.360246,-43.840191</coordinates>
</LinearRing>
</outerBoundaryIs>
</Polygon>
</Placemark>
<Placemark><name />
<styleUrl>#nz-lagoon-polygons-topo-150kId</styleUrl>
<ExtendedData><SchemaData schemaUrl="#nz-lagoon-polygons-topo-150kId"><SimpleData name="t50_fid">5002854</SimpleData>
<SimpleData name="elevation">0</SimpleData>
<SimpleData name="name_ascii" />
<SimpleData name="macronated">N</SimpleData>
<SimpleData name="name" />
</SchemaData>
</ExtendedData>
<Polygon><outerBoundaryIs><LinearRing><tessellate>1</tessellate>
<coordinates> 172.360362,-43.834573 172.360207,-43.834541 172.360095,-43.834568 172.359966,-43.834574 172.359932,-43.834502 172.360050,-43.834409 172.360252,-43.834364 172.360415,-43.834424 172.360466,-43.834499 172.360362,-43.834573</coordinates>
</LinearRing>
</outerBoundaryIs>
</Polygon>
</Placemark>
<Placemark><name />
<styleUrl>#nz-lagoon-polygons-topo-150kId</styleUrl>
<ExtendedData><SchemaData schemaUrl="#nz-lagoon-polygons-topo-150kId"><SimpleData name="t50_fid">5002856</SimpleData>
<SimpleData name="elevation">0</SimpleData>
<SimpleData name="name_ascii" />
<SimpleData name="macronated">N</SimpleData>
<SimpleData name="name" />
</SchemaData>
</ExtendedData>
<Polygon><outerBoundaryIs><LinearRing><tessellate>1</tessellate>
<coordinates> 172.360396,-43.832920 172.360299,-43.832914 172.360156,-43.832882 172.360140,-43.832834 172.360174,-43.832800 172.360322,-43.832761 172.360415,-43.832768 172.360435,-43.832874 172.360396,-43.832920</coordinates>
</LinearRing>
</outerBoundaryIs>
</Polygon>
</Placemark>
<Placemark><name />
<styleUrl>#nz-lagoon-polygons-topo-150kId</styleUrl>
<ExtendedData><SchemaData schemaUrl="#nz-lagoon-polygons-topo-150kId"><SimpleData name="t50_fid">5002855</SimpleData>
<SimpleData name="elevation">0</SimpleData>
<SimpleData name="name_ascii" />
<SimpleData name="macronated">N</SimpleData>
<SimpleData name="name" />
</SchemaData>
</ExtendedData>
<Polygon><outerBoundaryIs><LinearRing><tessellate>1</tessellate>
<coordinates> 172.360966,-43.833478 172.360880,-43.833530 172.360911,-43.833615 172.360851,-43.833699 172.360710,-43.833662 172.360603,-43.833698 172.360595,-43.833752 172.360490,-43.833796 172.360298,-43.833787 172.360323,-43.833729 172.360427,-43.833699 172.360436,-43.833653 172.360506,-43.833593 172.360504,-43.833499 172.360628,-43.833376 172.360748,-43.833367 172.360844,-43.833369 172.360902,-43.833398 172.360966,-43.833478</coordinates>
</LinearRing>
</outerBoundaryIs>
</Polygon>
</Placemark>
<Placemark><name />
<styleUrl>#nz-lagoon-polygons-topo-150kId</styleUrl>
<ExtendedData><SchemaData schemaUrl="#nz-lagoon-polygons-topo-150kId"><SimpleData name="t50_fid">5002853</SimpleData>
<SimpleData name="elevation">0</SimpleData>
<SimpleData name="name_ascii" />
<SimpleData name="macronated">N</SimpleData>
<SimpleData name="name" />
</SchemaData>
</ExtendedData>
<Polygon><outerBoundaryIs><LinearRing><tessellate>1</tessellate>
<coordinates> 172.358458,-43.835235 172.358594,-43.835335 172.358710,-43.835336 172.358838,-43.835440 172.358703,-43.835585 172.358711,-43.835663 172.358869,-43.835754 172.358946,-43.835826 172.358958,-43.835892 172.358850,-43.835929 172.358674,-43.835912 172.358618,-43.835877 172.358645,-43.835787 172.358556,-43.835700 172.358383,-43.835739 172.358354,-43.835636 172.358265,-43.835583 172.358278,-43.835514 172.358378,-43.835474 172.358430,-43.835353 172.358375,-43.835294 172.358397,-43.835241 172.358458,-43.835235</coordinates>
</LinearRing>
</outerBoundaryIs>
</Polygon>
</Placemark>
<Placemark><name />
<styleUrl>#nz-lagoon-polygons-topo-150kId</styleUrl>
<ExtendedData><SchemaData schemaUrl="#nz-lagoon-polygons-topo-150kId"><SimpleData name="t50_fid">5002850</SimpleData>
<SimpleData name="elevation">0</SimpleData>
<SimpleData name="name_ascii" />
<SimpleData name="macronated">N</SimpleData>
<SimpleData name="name" />
</SchemaData>
</ExtendedData>
<Polygon><outerBoundaryIs><LinearRing><tessellate>1</tessellate>
<coordinates> 172.360057,-43.839614 172.360006,-43.839714 172.359981,-43.839823 172.359984,-43.839919 172.359917,-43.839991 172.359993,-43.840135 172.359896,-43.840229 172.359903,-43.840283 172.359794,-43.840341 172.359858,-43.840442 172.359997,-43.840485 172.360172,-43.840461 172.360325,-43.840638 172.360274,-43.840675 172.360162,-43.840629 172.360015,-43.840634 172.359945,-43.840673 172.359764,-43.840627 172.359630,-43.840461 172.359371,-43.840395 172.359278,-43.840419 172.359089,-43.840354 172.359016,-43.840292 172.359048,-43.840202 172.359214,-43.840200 172.359272,-43.840232 172.359388,-43.840224 172.359412,-43.840157 172.359611,-43.840054 172.359767,-43.839906 172.359820,-43.839685 172.359922,-43.839588 172.360057,-43.839614</coordinates>
</LinearRing>
</outerBoundaryIs>
</Polygon>
</Placemark>
<Placemark><name />
<styleUrl>#nz-lagoon-polygons-topo-150kId</styleUrl>
<ExtendedData><SchemaData schemaUrl="#nz-lagoon-polygons-topo-150kId"><SimpleData name="t50_fid">5002851</SimpleData>
<SimpleData name="elevation">0</SimpleData>
<SimpleData name="name_ascii" />
<SimpleData name="macronated">N</SimpleData>
<SimpleData name="name" />
</SchemaData>
</ExtendedData>
<Polygon><outerBoundaryIs><LinearRing><tessellate>1</tessellate>
<coordinates> 172.359662,-43.839575 172.359534,-43.839661 172.359494,-43.839739 172.359313,-43.839705 172.359211,-43.839743 172.359218,-43.839839 172.359366,-43.839809 172.359462,-43.839888 172.359345,-43.839952 172.359201,-43.839990 172.359074,-43.839947 172.359102,-43.839847 172.358964,-43.839742 172.358886,-43.839758 172.358682,-43.839651 172.358679,-43.839586 172.358745,-43.839550 172.358846,-43.839537 172.358892,-43.839585 172.359012,-43.839577 172.359048,-43.839479 172.359087,-43.839434 172.359223,-43.839418 172.359280,-43.839478 172.359373,-43.839450 172.359505,-43.839434 172.359556,-43.839373 172.359680,-43.839393 172.359662,-43.839575</coordinates>
</LinearRing>
</outerBoundaryIs>
</Polygon>
</Placemark>
<Placemark><name />
<styleUrl>#nz-lagoon-polygons-topo-150kId</styleUrl>
<ExtendedData><SchemaData schemaUrl="#nz-lagoon-polygons-topo-150kId"><SimpleData name="t50_fid">5002859</SimpleData>
<SimpleData name="elevation">0</SimpleData>
<SimpleData name="name_ascii" />
<SimpleData name="macronated">N</SimpleData>
<SimpleData name="name" />
</SchemaData>
</ExtendedData>
<Polygon><outerBoundaryIs><LinearRing><tessellate>1</tessellate>
<coordinates> 172.359869,-43.814410 172.359917,-43.814378 172.360005,-43.814417 172.360093,-43.814448 172.360075,-43.814522 172.360128,-43.814588 172.360034,-43.814624 172.359988,-43.814668 172.359914,-43.814639 172.359866,-43.814574 172.359793,-43.814524 172.359759,-43.814471 172.359769,-43.814407 172.359803,-43.814379 172.359869,-43.814410</coordinates>
</LinearRing>
</outerBoundaryIs>
</Polygon>
</Placemark>
<Placemark><name />
<styleUrl>#nz-lagoon-polygons-topo-150kId</styleUrl>
<ExtendedData><SchemaData schemaUrl="#nz-lagoon-polygons-topo-150kId"><SimpleData name="t50_fid">5002857</SimpleData>
<SimpleData name="elevation">0</SimpleData>
<SimpleData name="name_ascii" />
<SimpleData name="macronated">N</SimpleData>
<SimpleData name="name" />
</SchemaData>
</ExtendedData>
<Polygon><outerBoundaryIs><LinearRing><tessellate>1</tessellate>
<coordinates> 172.361361,-43.830100 172.361343,-43.830156 172.361240,-43.830224 172.361234,-43.830296 172.361399,-43.830379 172.361416,-43.830438 172.361298,-43.830535 172.361215,-43.830653 172.361131,-43.830640 172.361078,-43.830558 172.360982,-43.830487 172.360898,-43.830431 172.360907,-43.830333 172.360848,-43.830287 172.360829,-43.830185 172.360853,-43.830113 172.360958,-43.830036 172.361030,-43.829947 172.361361,-43.830100</coordinates>
</LinearRing>
</outerBoundaryIs>
</Polygon>
</Placemark>
<Placemark><name />
<styleUrl>#nz-lagoon-polygons-topo-150kId</styleUrl>
<ExtendedData><SchemaData schemaUrl="#nz-lagoon-polygons-topo-150kId"><SimpleData name="t50_fid">5002858</SimpleData>
<SimpleData name="elevation">0</SimpleData>
<SimpleData name="name_ascii" />
<SimpleData name="macronated">N</SimpleData>
<SimpleData name="name" />
</SchemaData>
</ExtendedData>
<Polygon><outerBoundaryIs><LinearRing><tessellate>1</tessellate>
<coordinates> 172.362339,-43.829881 172.362218,-43.829904 172.362135,-43.829867 172.362037,-43.829952 172.362018,-43.830007 172.361970,-43.830023 172.361884,-43.830145 172.361746,-43.830116 172.361608,-43.830128 172.361497,-43.830080 172.361403,-43.830024 172.361421,-43.829970 172.361508,-43.829967 172.361557,-43.829903 172.361637,-43.829886 172.361657,-43.829844 172.361737,-43.829796 172.361805,-43.829682 172.361904,-43.829677 172.362021,-43.829774 172.362128,-43.829773 172.362196,-43.829816 172.362322,-43.829803 172.362388,-43.829839 172.362339,-43.829881</coordinates>
</LinearRing>
</outerBoundaryIs>
</Polygon>
</Placemark>
<Placemark><name />
<styleUrl>#nz-lagoon-polygons-topo-150kId</styleUrl>
<ExtendedData><SchemaData schemaUrl="#nz-lagoon-polygons-topo-150kId"><SimpleData name="t50_fid">8351611</SimpleData>
<SimpleData name="elevation">0</SimpleData>
<SimpleData name="name_ascii" />
<SimpleData name="macronated">N</SimpleData>
<SimpleData name="name" />
</SchemaData>
</ExtendedData>
<Polygon><outerBoundaryIs><LinearRing><tessellate>1</tessellate>
<coordinates> 172.373442,-43.796472 172.373578,-43.796419 172.373707,-43.796418 172.373767,-43.796448 172.373888,-43.796499 172.373960,-43.796512 172.374034,-43.796476 172.374428,-43.796638 172.374540,-43.796751 172.374493,-43.796842 172.374463,-43.796862 172.374417,-43.796855 172.374263,-43.796794 172.373752,-43.796551 172.373688,-43.796499 172.373614,-43.796492 172.373536,-43.796500 172.373418,-43.796543 172.373348,-43.796546 172.373442,-43.796472</coordinates>
</LinearRing>
</outerBoundaryIs>
</Polygon>
</Placemark>
<Placemark><name />
<styleUrl>#nz-lagoon-polygons-topo-150kId</styleUrl>
<ExtendedData><SchemaData schemaUrl="#nz-lagoon-polygons-topo-150kId"><SimpleData name="t50_fid">5002826</SimpleData>
<SimpleData name="elevation">0</SimpleData>
<SimpleData name="name_ascii" />
<SimpleData name="macronated">N</SimpleData>
<SimpleData name="name" />
</SchemaData>
</ExtendedData>
<Polygon><outerBoundaryIs><LinearRing><tessellate>1</tessellate>
<coordinates> 172.362699,-43.809494 172.362861,-43.809487 172.363012,-43.809427 172.363257,-43.809428 172.363422,-43.809208 172.363680,-43.809105 172.363842,-43.809106 172.363915,-43.809002 172.364053,-43.809003 172.364156,-43.808921 172.364276,-43.808913 172.364481,-43.808775 172.364740,-43.808607 172.364829,-43.808725 172.364780,-43.808829 172.364623,-43.808937 172.364341,-43.808996 172.364220,-43.809104 172.364105,-43.809164 172.364019,-43.809380 172.363814,-43.809479 172.363879,-43.809596 172.363764,-43.809726 172.363578,-43.809708 172.363482,-43.809750 172.363378,-43.809910 172.363240,-43.809914 172.363132,-43.809987 172.363030,-43.809935 172.363007,-43.809830 172.362906,-43.809786 172.362865,-43.809673 172.362633,-43.809581 172.362699,-43.809494</coordinates>
</LinearRing>
</outerBoundaryIs>
</Polygon>
</Placemark>
<Placemark><name />
<styleUrl>#nz-lagoon-polygons-topo-150kId</styleUrl>
<ExtendedData><SchemaData schemaUrl="#nz-lagoon-polygons-topo-150kId"><SimpleData name="t50_fid">5002860</SimpleData>
<SimpleData name="elevation">0</SimpleData>
<SimpleData name="name_ascii" />
<SimpleData name="macronated">N</SimpleData>
<SimpleData name="name" />
</SchemaData>
</ExtendedData>
<Polygon><outerBoundaryIs><LinearRing><tessellate>1</tessellate>
<coordinates> 172.361937,-43.810676 172.361864,-43.810769 172.361778,-43.810772 172.361712,-43.810642 172.361792,-43.810593 172.361905,-43.810600 172.361937,-43.810676</coordinates>
</LinearRing>
</outerBoundaryIs>
</Polygon>
</Placemark>
<Placemark><name />
<styleUrl>#nz-lagoon-polygons-topo-150kId</styleUrl>
<ExtendedData><SchemaData schemaUrl="#nz-lagoon-polygons-topo-150kId"><SimpleData name="t50_fid">5002863</SimpleData>
<SimpleData name="elevation">0</SimpleData>
<SimpleData name="name_ascii" />
<SimpleData name="macronated">N</SimpleData>
<SimpleData name="name" />
</SchemaData>
</ExtendedData>
<Polygon><outerBoundaryIs><LinearRing><tessellate>1</tessellate>
<coordinates> 172.355478,-43.781852 172.355502,-43.781948 172.355637,-43.782054 172.355589,-43.782155 172.355712,-43.782214 172.355804,-43.782347 172.355633,-43.782404 172.355531,-43.782472 172.355402,-43.782585 172.355287,-43.782621 172.355095,-43.782679 172.355036,-43.782620 172.355046,-43.782530 172.355157,-43.782442 172.355239,-43.782350 172.355248,-43.782258 172.355403,-43.782120 172.355370,-43.782015 172.355359,-43.781858 172.355377,-43.781763 172.355517,-43.781770 172.355478,-43.781852</coordinates>
</LinearRing>
</outerBoundaryIs>
</Polygon>
</Placemark>
<Placemark><name />
<styleUrl>#nz-lagoon-polygons-topo-150kId</styleUrl>
<ExtendedData><SchemaData schemaUrl="#nz-lagoon-polygons-topo-150kId"><SimpleData name="t50_fid">5002864</SimpleData>
<SimpleData name="elevation">0</SimpleData>
<SimpleData name="name_ascii" />
<SimpleData name="macronated">N</SimpleData>
<SimpleData name="name" />
</SchemaData>
</ExtendedData>
<Polygon><outerBoundaryIs><LinearRing><tessellate>1</tessellate>
<coordinates> 172.356686,-43.781761 172.356837,-43.781863 172.356990,-43.781873 172.357002,-43.781972 172.356921,-43.782036 172.356903,-43.782113 172.356987,-43.782212 172.356952,-43.782289 172.356858,-43.782291 172.356830,-43.782208 172.356706,-43.782207 172.356627,-43.782102 172.356516,-43.782092 172.356445,-43.782027 172.356309,-43.782027 172.356309,-43.781968 172.356476,-43.781910 172.356540,-43.781834 172.356507,-43.781754 172.356597,-43.781708 172.356686,-43.781761</coordinates>
</LinearRing>
</outerBoundaryIs>
</Polygon>
</Placemark>
<Placemark><name />
<styleUrl>#nz-lagoon-polygons-topo-150kId</styleUrl>
<ExtendedData><SchemaData schemaUrl="#nz-lagoon-polygons-topo-150kId"><SimpleData name="t50_fid">5002865</SimpleData>
<SimpleData name="elevation">0</SimpleData>
<SimpleData name="name_ascii" />
<SimpleData name="macronated">N</SimpleData>
<SimpleData name="name" />
</SchemaData>
</ExtendedData>
<Polygon><outerBoundaryIs><LinearRing><tessellate>1</tessellate>
<coordinates> 172.356882,-43.781309 172.356970,-43.781378 172.357093,-43.781387 172.357211,-43.781487 172.357196,-43.781674 172.357259,-43.781789 172.357085,-43.781803 172.356974,-43.781769 172.356886,-43.781685 172.356880,-43.781488 172.356767,-43.781346 172.356882,-43.781309</coordinates>
</LinearRing>
</outerBoundaryIs>
</Polygon>
</Placemark>
<Placemark><name />
<styleUrl>#nz-lagoon-polygons-topo-150kId</styleUrl>
<ExtendedData><SchemaData schemaUrl="#nz-lagoon-polygons-topo-150kId"><SimpleData name="t50_fid">5002862</SimpleData>
<SimpleData name="elevation">0</SimpleData>
<SimpleData name="name_ascii" />
<SimpleData name="macronated">N</SimpleData>
<SimpleData name="name" />
</SchemaData>
</ExtendedData>
<Polygon><outerBoundaryIs><LinearRing><tessellate>1</tessellate>
<coordinates> 172.355357,-43.787013 172.355372,-43.787159 172.355289,-43.787258 172.355131,-43.787321 172.355004,-43.787275 172.354877,-43.787287 172.354830,-43.787203 172.354864,-43.787123 172.355039,-43.786946 172.355009,-43.786848 172.355145,-43.786769 172.355269,-43.786806 172.355357,-43.787013</coordinates>
</LinearRing>
</outerBoundaryIs>
</Polygon>
</Placemark>
<Placemark><name />
<styleUrl>#nz-lagoon-polygons-topo-150kId</styleUrl>
<ExtendedData><SchemaData schemaUrl="#nz-lagoon-polygons-topo-150kId"><SimpleData name="t50_fid">5002861</SimpleData>
<SimpleData name="elevation">0</SimpleData>
<SimpleData name="name_ascii" />
<SimpleData name="macronated">N</SimpleData>
<SimpleData name="name" />
</SchemaData>
</ExtendedData>
<Polygon><outerBoundaryIs><LinearRing><tessellate>1</tessellate>
<coordinates> 172.353026,-43.796303 172.352909,-43.796178 172.352943,-43.796046 172.352890,-43.795965 172.352773,-43.795882 172.352833,-43.795821 172.352940,-43.795849 172.353004,-43.795806 172.353192,-43.795800 172.353321,-43.795746 172.353389,-43.795859 172.353495,-43.795933 172.353425,-43.796033 172.353285,-43.796075 172.353268,-43.796153 172.353375,-43.796204 172.353385,-43.796239 172.353223,-43.796358 172.353026,-43.796303</coordinates>
</LinearRing>
</outerBoundaryIs>
</Polygon>
</Placemark>
<Placemark><name />
<styleUrl>#nz-lagoon-polygons-topo-150kId</styleUrl>
<ExtendedData><SchemaData schemaUrl="#nz-lagoon-polygons-topo-150kId"><SimpleData name="t50_fid">5998753</SimpleData>
<SimpleData name="elevation">0</SimpleData>
<SimpleData name="name_ascii" />
<SimpleData name="macronated">N</SimpleData>
<SimpleData name="name" />
</SchemaData>
</ExtendedData>
<Polygon><outerBoundaryIs><LinearRing><tessellate>1</tessellate>
<coordinates> 172.731107,-43.556634 172.730992,-43.556676 172.730847,-43.556728 172.730658,-43.556790 172.730498,-43.556821 172.730353,-43.556916 172.730194,-43.557030 172.730019,-43.557166 172.729889,-43.557281 172.729685,-43.557522 172.729541,-43.557646 172.729337,-43.557751 172.729265,-43.557891 172.729187,-43.557942 172.729102,-43.557950 172.728985,-43.557936 172.729039,-43.557857 172.729061,-43.557707 172.729026,-43.557617 172.728782,-43.557421 172.728586,-43.557404 172.728383,-43.557434 172.728137,-43.557486 172.727803,-43.557664 172.727530,-43.557686 172.727340,-43.557631 172.727254,-43.557641 172.727225,-43.557715 172.727194,-43.557945 172.727049,-43.558070 172.726903,-43.558195 172.726729,-43.558405 172.726526,-43.558530 172.726482,-43.558655 172.726409,-43.558750 172.726422,-43.559001 172.726527,-43.559185 172.726710,-43.559332 172.726991,-43.559421 172.727276,-43.559490 172.727362,-43.559562 172.727374,-43.559628 172.727207,-43.559544 172.727078,-43.559518 172.726933,-43.559542 172.726791,-43.559547 172.726636,-43.559628 172.726520,-43.559766 172.726461,-43.559892 172.726361,-43.559912 172.726283,-43.559886 172.726207,-43.559774 172.726140,-43.559721 172.725988,-43.559641 172.725801,-43.559504 172.725569,-43.559369 172.725360,-43.559187 172.725204,-43.559066 172.725037,-43.558917 172.724935,-43.558788 172.724643,-43.558506 172.724353,-43.558311 172.724251,-43.558219 172.724144,-43.558208 172.724118,-43.558180 172.724126,-43.558142 172.724155,-43.558087 172.724124,-43.558033 172.724019,-43.557940 172.723877,-43.557826 172.723764,-43.557709 172.723707,-43.557614 172.723369,-43.557303 172.723204,-43.557160 172.723268,-43.556917 172.723249,-43.556765 172.723169,-43.556573 172.723211,-43.556300 172.723324,-43.556092 172.723418,-43.556050 172.723652,-43.556065 172.724030,-43.556091 172.727711,-43.556340 172.731180,-43.556561 172.731107,-43.556634</coordinates>
</LinearRing>
</outerBoundaryIs>
<innerBoundaryIs><LinearRing><tessellate>1</tessellate>
<coordinates> 172.725130,-43.557551 172.724981,-43.557613 172.724960,-43.557613 172.724854,-43.557535 172.724727,-43.557581 172.724705,-43.557674 172.724704,-43.557797 172.724683,-43.557890 172.724767,-43.557905 172.724959,-43.557875 172.725129,-43.557813 172.725257,-43.557737 172.725278,-43.557614 172.725258,-43.557552 172.725130,-43.557551</coordinates>
</LinearRing>
</innerBoundaryIs>
<innerBoundaryIs><LinearRing><tessellate>1</tessellate>
<coordinates> 172.725237,-43.557104 172.725089,-43.557089 172.724877,-43.557088 172.724750,-43.557056 172.724665,-43.557133 172.724665,-43.557304 172.724748,-43.557427 172.724918,-43.557396 172.724897,-43.557288 172.725195,-43.557227 172.725301,-43.557135 172.725237,-43.557104</coordinates>
</LinearRing>
</innerBoundaryIs>
<innerBoundaryIs><LinearRing><tessellate>1</tessellate>
<coordinates> 172.724328,-43.556746 172.724454,-43.556855 172.724518,-43.556855 172.724687,-43.556933 172.724793,-43.556918 172.724942,-43.556795 172.724879,-43.556717 172.724645,-43.556686 172.724350,-43.556655 172.724328,-43.556670 172.724328,-43.556746</coordinates>
</LinearRing>
</innerBoundaryIs>
</Polygon>
</Placemark>
<Placemark><name>Brooklands Lagoon</name>
<styleUrl>#nz-lagoon-polygons-topo-150kId</styleUrl>
<ExtendedData><SchemaData schemaUrl="#nz-lagoon-polygons-topo-150kId"><SimpleData name="t50_fid">5002777</SimpleData>
<SimpleData name="elevation">0</SimpleData>
<SimpleData name="name_ascii">Brooklands Lagoon</SimpleData>
<SimpleData name="macronated">N</SimpleData>
<SimpleData name="name">Brooklands Lagoon</SimpleData>
</SchemaData>
</ExtendedData>
<Polygon><outerBoundaryIs><LinearRing><tessellate>1</tessellate>
<coordinates> 172.704969,-43.392414 172.705232,-43.392864 172.705313,-43.392972 172.705608,-43.393364 172.705749,-43.393709 172.706078,-43.394191 172.706194,-43.394476 172.706499,-43.395225 172.706778,-43.396276 172.706988,-43.397050 172.706937,-43.397773 172.706934,-43.398471 172.706933,-43.398598 172.706929,-43.399545 172.706997,-43.399811 172.707027,-43.399927 172.707137,-43.400355 172.708244,-43.401717 172.708527,-43.402269 172.708712,-43.403094 172.708896,-43.404300 172.709108,-43.404696 172.709105,-43.405195 172.709079,-43.405556 172.708627,-43.405968 172.708484,-43.406175 172.708516,-43.406742 172.708728,-43.407122 172.709034,-43.407483 172.709317,-43.407966 172.709315,-43.408362 172.709171,-43.408774 172.708933,-43.408981 172.708742,-43.409204 172.708622,-43.409496 172.708620,-43.409875 172.708786,-43.410064 172.709448,-43.410238 172.709753,-43.410600 172.709942,-43.410876 172.709964,-43.411271 172.709963,-43.411461 172.709961,-43.411805 172.709869,-43.412012 172.709763,-43.412233 172.709565,-43.412645 172.709190,-43.413898 172.709085,-43.414122 172.709124,-43.414614 172.709656,-43.414944 172.710273,-43.415125 172.710455,-43.415483 172.710453,-43.415797 172.710309,-43.416109 172.709875,-43.416377 172.709771,-43.416779 172.709728,-43.417287 172.709889,-43.417825 172.709950,-43.418093 172.710010,-43.418302 172.710031,-43.418436 172.709968,-43.418601 172.709349,-43.419076 172.709081,-43.419240 172.709039,-43.419554 172.709100,-43.419778 172.709304,-43.419972 172.710023,-43.420168 172.710514,-43.420348 172.710738,-43.420885 172.710735,-43.421453 172.710693,-43.421781 172.710671,-43.422080 172.710536,-43.422904 172.710157,-43.423538 172.709614,-43.424020 172.708635,-43.424078 172.707862,-43.424545 172.707587,-43.425452 172.707574,-43.425464 172.707545,-43.425622 172.707709,-43.426036 172.707732,-43.426094 172.708325,-43.427355 172.708326,-43.427420 172.708243,-43.427707 172.708157,-43.428145 172.707968,-43.428402 172.707966,-43.428705 172.707882,-43.429097 172.707340,-43.429051 172.706925,-43.428778 172.706406,-43.428564 172.706281,-43.428261 172.706033,-43.427989 172.705577,-43.427685 172.705224,-43.427351 172.705122,-43.427004 172.704881,-43.426555 172.704548,-43.426057 172.704361,-43.425562 172.704216,-43.425288 172.703768,-43.424437 172.703642,-43.423896 172.703176,-43.423177 172.702956,-43.422614 172.702179,-43.421603 172.701338,-43.420298 172.700996,-43.419645 172.700964,-43.419240 172.701020,-43.418798 172.701053,-43.418541 172.701021,-43.418158 172.700926,-43.417843 172.700924,-43.417483 172.701014,-43.416941 172.701289,-43.416040 172.701512,-43.415684 172.701886,-43.415536 172.701989,-43.415335 172.702069,-43.415136 172.702379,-43.414546 172.702550,-43.414202 172.702451,-43.413470 172.702578,-43.412575 172.702397,-43.411993 172.701996,-43.411418 172.701908,-43.410895 172.701853,-43.410563 172.701913,-43.410174 172.702003,-43.409605 172.702040,-43.408464 172.702042,-43.408137 172.702092,-43.407466 172.702141,-43.407375 172.702058,-43.407351 172.701909,-43.407323 172.701520,-43.407291 172.701248,-43.407195 172.700877,-43.407158 172.700587,-43.407081 172.700451,-43.406972 172.700297,-43.406972 172.700260,-43.406900 172.700174,-43.406864 172.700074,-43.406931 172.699976,-43.406904 172.699834,-43.406831 172.699723,-43.406732 172.699568,-43.406695 172.699401,-43.406785 172.699307,-43.407037 172.699202,-43.407104 172.698948,-43.407162 172.698744,-43.407117 172.698595,-43.407143 172.698521,-43.407202 172.698427,-43.407305 172.698279,-43.407364 172.698173,-43.407471 172.698043,-43.407557 172.697820,-43.407543 172.697419,-43.407343 172.697302,-43.407167 172.697384,-43.406933 172.697379,-43.406757 172.697379,-43.406631 172.697183,-43.406328 172.697011,-43.406161 172.696801,-43.406034 172.696709,-43.405831 172.696711,-43.405511 172.696829,-43.405407 172.697021,-43.405322 172.697275,-43.405314 172.697566,-43.405197 172.697919,-43.405140 172.698055,-43.405153 172.698320,-43.405258 172.698462,-43.405263 172.698679,-43.405218 172.698957,-43.405314 172.699290,-43.405513 172.699579,-43.405757 172.699684,-43.405929 172.699633,-43.406222 172.699774,-43.406461 172.700162,-43.406773 172.700335,-43.406841 172.700502,-43.406828 172.700631,-43.406964 172.700748,-43.407059 172.701477,-43.407165 172.702260,-43.407124 172.702380,-43.406830 172.702569,-43.406744 172.703045,-43.406470 172.704077,-43.406530 172.704389,-43.406248 172.704382,-43.406089 172.704375,-43.405906 172.705133,-43.405805 172.705465,-43.405634 172.705590,-43.405241 172.705666,-43.404805 172.705653,-43.404412 172.705566,-43.403987 172.705375,-43.403419 172.705287,-43.402950 172.704710,-43.401956 172.704399,-43.401398 172.704192,-43.401081 172.703955,-43.400781 172.703101,-43.399845 172.702700,-43.399397 172.702443,-43.398707 172.702444,-43.398472 172.702446,-43.398054 172.702539,-43.397643 172.702533,-43.397378 172.703195,-43.397361 172.703409,-43.397386 172.703840,-43.397192 172.704064,-43.396998 172.704229,-43.396802 172.704326,-43.396372 172.704256,-43.396028 172.704116,-43.395632 172.703892,-43.395408 172.703776,-43.395029 172.703730,-43.394770 172.703471,-43.394305 172.703236,-43.393925 172.702765,-43.393495 172.701961,-43.393148 172.701747,-43.393113 172.701559,-43.392975 172.701299,-43.392888 172.704879,-43.392261 172.704969,-43.392414</coordinates>
</LinearRing>
</outerBoundaryIs>
<innerBoundaryIs><LinearRing><tessellate>1</tessellate>
<coordinates> 172.703556,-43.415817 172.703498,-43.415725 172.703396,-43.415662 172.703219,-43.415724 172.703190,-43.415857 172.703497,-43.416057 172.704037,-43.416224 172.704128,-43.416505 172.704086,-43.416833 172.704124,-43.417356 172.704777,-43.418088 172.705124,-43.418552 172.705699,-43.418643 172.706151,-43.418972 172.706168,-43.419465 172.706188,-43.419749 172.705838,-43.419926 172.705508,-43.420120 172.705157,-43.420432 172.705113,-43.420820 172.705154,-43.421060 172.705419,-43.421358 172.706180,-43.421465 172.706817,-43.421481 172.707269,-43.421378 172.707435,-43.421193 172.707683,-43.420917 172.707624,-43.420289 172.707505,-43.419379 172.707137,-43.418840 172.706626,-43.418242 172.705889,-43.417823 172.705296,-43.417298 172.704867,-43.416671 172.704932,-43.415955 172.704922,-43.415808 172.704894,-43.415432 172.705020,-43.414806 172.705413,-43.414374 172.705496,-43.413987 172.705602,-43.413539 172.705459,-43.413136 172.705320,-43.412655 172.705333,-43.411954 172.705454,-43.411267 172.705247,-43.410910 172.704722,-43.410822 172.704213,-43.410993 172.704284,-43.411363 172.704636,-43.411715 172.704843,-43.412052 172.704841,-43.412390 172.704703,-43.412673 172.704657,-43.412911 172.704436,-43.413539 172.704189,-43.414021 172.703906,-43.414529 172.703896,-43.414721 172.703971,-43.414952 172.703988,-43.415594 172.703742,-43.415856 172.703556,-43.415817</coordinates>
</LinearRing>
</innerBoundaryIs>
</Polygon>
</Placemark>
<Schema id="nz-lagoon-polygons-topo-150kId" name="nz-lagoon-polygons-topo-150k"><SimpleField name="t50_fid" type="int"><displayName><![CDATA[t50_fid]]></displayName>
</SimpleField>
<SimpleField name="elevation" type="int"><displayName><![CDATA[elevation]]></displayName>
</SimpleField>
<SimpleField name="name_ascii" type="string"><displayName><![CDATA[name_ascii]]></displayName>
</SimpleField>
<SimpleField name="macronated" type="string"><displayName><![CDATA[macronated]]></displayName>
</SimpleField>
<SimpleField name="name" type="string"><displayName><![CDATA[name]]></displayName>
</SimpleField>
</Schema>
<Style id="nz-lagoon-polygons-topo-150kId"><IconStyle><color>ff009e00</color>
<scale>0.2</scale>
<Icon><href>http://maps.google.com/mapfiles/kml/pal2/icon18.png</href>
</Icon>
</IconStyle>
<LineStyle><color>ff009e00</color>
<width>2</width>
</LineStyle>
<PolyStyle><color>7f009e00</color>
</PolyStyle>
<BalloonStyle><text><![CDATA[
<html>
<head>
    <style type="text/css">
        table {
            width: 100%;
            border-width: 1px 0 1px 0;
            border-style: solid;
            margin-bottom: 10px;
        }

        th, td {
            text-align: left;
        }

        th {
            width:auto;
        }
    </style>
</head>
<body>
    <base href="https://data.linz.govt.nz/" />

    <h2>NZ Lagoon Polygons (Topo, 1:50k)</h2>

    <table>
        <tbody>
            
                <tr><th>$[nz-lagoon-polygons-topo-150k/t50_fid/displayName]</th><td>$[nz-lagoon-polygons-topo-150k/t50_fid]</th></tr>
            
                <tr><th>$[nz-lagoon-polygons-topo-150k/elevation/displayName]</th><td>$[nz-lagoon-polygons-topo-150k/elevation]</th></tr>
            
                <tr><th>$[nz-lagoon-polygons-topo-150k/name_ascii/displayName]</th><td>$[nz-lagoon-polygons-topo-150k/name_ascii]</th></tr>
            
                <tr><th>$[nz-lagoon-polygons-topo-150k/macronated/displayName]</th><td>$[nz-lagoon-polygons-topo-150k/macronated]</th></tr>
            
                <tr><th>$[nz-lagoon-polygons-topo-150k/name/displayName]</th><td>$[nz-lagoon-polygons-topo-150k/name]</th></tr>
            
        </tbody>
    </table>

    <div>Source: <a href="https://data.linz.govt.nz/layer/50292-nz-lagoon-polygons-topo-150k/" onclick="window.open('about:blank'); window.open(this.href); return false;">NZ Lagoon Polygons (Topo, 1:50k)</a></div>
    
        <div>License: <a href="https://data.linz.govt.nz/license/attribution-4-0-international/" onclick="window.open('about:blank'); window.open(this.href); return false;">Creative Commons Attribution 4.0 International</a></div>
    
    <div>Data last updated: 23 Apr 2026</div>
    <div>Downloaded from <a href="https://data.linz.govt.nz/" onclick="window.open('about:blank'); window.open(this.href); return false;">LINZ Data Service</a> on 21 Jul 2026</div>
</body>
</html>
]]></text>
</BalloonStyle>
</Style>
</Document>
</kml>
